C/2021 B3 (NEOWISE),e,119.4799,67.2832,293.5339,34.40976,0.0048829,0.93719495,4.2802,08/04.0/2023,2000,g 13.5,4.0
# From MPEC 2023-KD6
C/2021 C1 (Rankin),e,143.0446,186.8947,336.2163,6458,0.0000019,0.99946161,0.0000,12/06.8602/2020,2000,g 11.5,4.0
# From MPEC 2021-U31
P/2021 C2 (PANSTARRS),e,21.9370,66.4589,78.7134,9.534668,0.0334769,0.48745815,29.8428,08/04.0/2023,2000,g 12.0,4.0
# From MPEC 2021-N06
C/2021 C3 (Catalina),e,122.1660,181.9228,357.0620,61.70437,0.0020334,0.96314561,1.8360,08/04.0/2023,2000,g 14.0,4.0
# From MPEC 2022-M88
C/2021 C4 (ATLAS),e,132.8530,194.2768,320.1811,71702,0.0000001,0.99993723,0.0000,01/16.9868/2021,2000,g  9.0,4.0
# From MPEC 2023-N16
C/2021 C5 (PANSTARRS),e,50.7825,323.6793,270.9232,2177,0.0000097,0.99851094,0.0000,02/11.0672/2023,2000,g  9.0,4.0
# From MPEC 2022-YB4
C/2021 C6 (Lemmon),h,11/13.2769/2021,164.6184,332.2397,203.7319,1.000901,3.276364,2000,12.0,4.0
# From MPEC 2022-F14
C/2021 D1 (SWAN),e,31.4188,311.2240,72.3095,100.6311,0.0009764,0.99102983,0.0000,02/27.7656/2021,2000,g 13.0,4.0
# From MPEC 2023-J29
C/2021 D2 (ZTF),h,02/03.9741/2022,83.8104,305.6748,125.0267,1.001680,2.946250,2000,9.0,4.0
# From MPEC 2022-UY9
A/2021 E2,e,167.4884,190.8175,342.3672,222.1384,0.0002977,0.98971731,0.0000,12/10.3156/2020,2000,g 15.0,2.0
# From MPEC 2023-J29
C/2021 E3 (ZTF),h,06/11.8875/2022,112.5462,104.4782,228.8475,1.000803,1.777311,2000,8.5,4.0
# From MPEC 2023-M14
A/2021 E4,e,116.3611,171.1691,48.2624,574.7430,0.0000715,0.99186398,0.0000,04/25.1458/2022,2000,g 13.5,22.0
# From MPEC 2022-QD9
C/2021 F1 (Lemmon-PANSTARRS),e,107.3264,203.4532,146.8350,229.2806,0.0002839,0.99565567,0.0000,04/06.8170/2022,2000,g 13.5,4.0
# From MPEC 2021-J72
C/2021 G1 (Leonard),e,131.5474,270.6985,107.4493,73.70042,0.0015578,0.95354872,1.1576,08/04.0/2023,2000,g 14.0,4.0
# From MPEC 2023-OA6
C/2021 G2 (ATLAS),e,48.4745,221.0947,343.3163,8764,0.0000012,0.99943157,0.0000,09/09.5386/2024,2000,g  5.5,4.0
# From MPEC 2022-X67
C/2021 G3 (PANSTARRS),h,10/18.0996/2021,102.8727,147.4023,10.5940,1.000012,5.180075,2000,10.5,4.0
# From MPEC 2021-Y10
P/2021 HS (PANSTARRS),e,12.1611,262.3776,46.1256,4.194598,0.1147278,0.80978277,83.5027,08/04.0/2023,2000,g 22.0,4.0
# From MPEC 2022-C56
C/2021 J1 (Maury-Attard),e,92.7197,88.3754,147.3160,26.36791,0.0072793,0.93399613,6.5195,08/04.0/2023,2000,g 15.5,4.0
# From MPEC 2023-KD6
C/2021 J2 (PANSTARRS),e,156.2133,23.3357,172.0082,117.1182,0.0007776,0.95983114,0.5295,08/04.0/2023,2000,g 12.0,4.0
# From MPEC 2021-S45
P/2021 J3 (ATLAS),e,14.5300,111.1399,125.9827,8.927003,0.0369526,0.44912080,55.1500,08/04.0/2023,2000,g  7.0,4.0
# From MPEC 2022-O08
C/2021 K1 (ATLAS),e,16.2752,140.9072,184.2786,12.66490,0.0218676,0.80267532,17.9723,08/04.0/2023,2000,g 11.0,4.0
# From MPEC 2022-O01
C/2021 K2 (MASTER),h,09/09.4780/2021,100.8643,282.2572,343.3630,1.001094,5.467918,2000,8.0,4.0
# From MPEC 2022-L66
C/2021 K3 (Catalina),h,02/03.1968/2022,134.7854,114.4655,182.0588,1.003526,5.230077,2000,10.0,4.0
# From MPEC 2021-W31
P/2021 L2 (Leonard),e,21.0676,266.6567,51.5084,4.048870,0.1209771,0.52105624,89.6217,08/04.0/2023,2000,g 17.0,4.0
# From MPEC 2023-M14
C/2021 L3 (Borisov),h,02/14.2323/2022,78.5752,344.9813,91.6162,1.003729,8.458102,2000,10.1,4.0
# From MPEC 2022-TA0
P/2021 N1 (ZTF),e,11.4956,301.1606,21.2303,2.978149,0.1917717,0.67630187,151.2388,08/04.0/2023,2000,g 19.0,4.0
# From MPEC 2023-M14
P/2021 N2 (Fuls),e,13.0613,221.7337,177.4694,6.939012,0.0539210,0.45259540,33.8641,08/04.0/2023,2000,g 10.8,4.0
# From MPEC 2022-YB4
C/2021 N3 (PANSTARRS),e,26.7414,337.4938,304.7581,150.4958,0.0005338,0.96201034,0.5764,08/04.0/2023,2000,g  8.5,4.0
# From MPEC 2022-A21
C/2021 O1 (Nishimura),e,27.5896,41.6235,74.3852,2390,0.0000084,0.99967149,0.0000,08/14.0586/2021,2000,g 10.5,4.0
# From MPEC 2022-L66
C/2021 O3 (PANSTARRS),h,04/21.0553/2022,56.7944,189.0099,299.9621,1.000055,0.286849,2000,10.5,4.0
# From MPEC 2022-CN4
C/2021 P1 (PANSTARRS),e,51.6366,359.6780,40.4708,2583,0.0000075,0.99830619,0.0000,06/02.4284/2022,2000,g 11.0,4.0
# From MPEC 2023-O39
C/2021 P2 (PANSTARRS),e,150.0635,32.0800,76.7026,2832,0.0000065,0.99821033,0.0000,01/22.8083/2023,2000,g  9.0,4.0
# From MPEC 2021-W31
P/2021 P3 (PANSTARRS),e,27.1616,358.2395,334.0928,4.412351,0.1063406,0.33901105,84.6401,08/04.0/2023,2000,g 14.0,4.0
# From MPEC 2023-A50
C/2021 P4 (ATLAS),e,56.3121,348.0885,175.8057,306.3745,0.0001838,0.99647423,0.0000,07/30.3460/2022,2000,g  9.5,4.0
# From MPEC 2023-E68
P/2021 PE20 (ATLAS),e,20.0075,99.6309,210.4685,3.745769,0.1359542,0.67025988,107.1458,08/04.0/2023,2000,g 17.0,4.0
# From MPEC 2023-FK0
C/2021 Q3 (ATLAS),e,77.7572,307.9140,114.1041,75.67659,0.0014971,0.93122127,0.8305,08/04.0/2023,2000,g  8.0,4.0
# From MPEC 2023-OA6
C/2021 Q4 (Fuls),h,06/10.7756/2023,71.4754,183.3317,147.0210,1.003179,7.564710,2000,6.0,4.0
# From MPEC 2022-C56
P/2021 Q5 (ATLAS),e,10.7395,239.7476,180.9277,3.286686,0.1654119,0.62457851,116.3443,08/04.0/2023,2000,g 15.0,4.0
# From MPEC 2023-OA6
C/2021 Q6 (PANSTARRS),e,161.8467,133.5375,140.9796,1160331,0.0000000,0.99999249,0.0000,03/24.2747/2024,2000,g  6.0,4.0
# From MPEC 2023-FK0
C/2021 QM45 (PANSTARRS),e,22.8213,354.5917,72.8271,369.5933,0.0001387,0.99249539,0.0000,08/13.5266/2022,2000,g 11.0,4.0
# From MPEC 2022-X67
P/2021 R1 (PANSTARRS),e,5.5192,143.3163,220.3235,8.328258,0.0410084,0.41332806,24.4362,08/04.0/2023,2000,g 11.0,4.0
# From MPEC 2022-X67
C/2021 R2 (PANSTARRS),e,134.4821,16.2977,32.4565,2749,0.0000068,0.99733902,0.0000,12/27.0772/2021,2000,g  7.5,4.0
# From MPEC 2021-W31
P/2021 R3 (PANSTARRS),e,19.9298,304.1985,2.7610,3.771988,0.1345391,0.33107499,107.6478,08/04.0/2023,2000,g 16.0,4.0
# From MPEC 2021-W31
P/2021 R4 (Wierzchos),e,21.0335,321.2629,56.7007,5.622812,0.0739220,0.58600695,48.7092,08/04.0/2023,2000,g 16.0,4.0
# From MPEC 2022-Y15
P/2021 R5 (Rankin),e,7.8545,219.9561,167.4603,4.794138,0.0938941,0.30665536,53.3775,08/04.0/2023,2000,g 12.0,4.0
# From MPEC 2021-W31
P/2021 R6 (Groeller),e,34.9244,176.1179,220.8068,6.281571,0.0626039,0.59345952,40.1208,08/04.0/2023,2000,g 14.5,4.0
# From MPEC 2022-X67
C/2021 R7 (PANSTARRS),e,158.8549,170.1533,140.2821,866.4609,0.0000386,0.99347850,0.0000,04/16.5279/2021,2000,g 10.5,4.0
# From MPEC 2021-Y10
P/2021 R8 (Sheppard),e,2.2034,167.0266,190.8470,3.018091,0.1879773,0.29338490,125.0984,08/04.0/2023,2000,g 18.5,4.0
# From MPEC 2023-J29
C/2021 S1 (ATLAS),h,03/01.1857/2022,52.0676,299.8769,148.2028,1.002150,6.119580,2000,7.0,4.0
# From MPEC 2023-OA6
C/2021 S3 (PANSTARRS),h,02/14.7239/2024,58.5334,215.6214,6.8648,1.000152,1.320093,2000,5.5,4.0
# From MPEC 2023-E68
C/2021 S4 (Tsuchinshan),e,17.4794,5.4936,72.8407,164.5824,0.0004668,0.95935312,359.9295,08/04.0/2023,2000,g  6.5,4.0
# From MPEC 2022-OB6
C/2021 T1 (Lemmon),e,140.3564,56.8271,51.5496,1410,0.0000186,0.99783009,0.0000,10/14.1574/2021,2000,g 12.5,4.0
# From MPEC 2023-A50
C/2021 T2 (Fuls),h,06/07.9327/2022,117.5382,223.2337,263.5990,1.000402,1.247613,2000,12.0,4.0
# From MPEC 2023-OA6
C/2021 T4 (Lemmon),e,160.7769,257.8847,329.8216,9172,0.0000011,0.99983828,0.0000,07/31.5377/2023,2000,g  7.5,4.0
# From MPEC 2022-ED3
P/2021 U1 (Wierzchos),e,30.5535,246.7690,145.1337,8.525098,0.0395963,0.71299121,26.6034,08/04.0/2023,2000,g 14.5,4.0
# From MPEC 2022-L66
P/2021 U3 (Attard-Maury),e,69.9606,75.0907,335.2528,4.193104,0.1147891,0.54981636,74.3974,08/04.0/2023,2000,g 15.5,4.0
# From MPEC 2021-W31
C/2021 U4 (Leonard),e,152.8842,241.8088,237.3097,44.91456,0.0032743,0.96018113,1.9320,08/04.0/2023,2000,g 17.0,4.0
# From MPEC 2022-WQ9
C/2021 U5 (Catalina),e,39.0490,182.7513,321.4357,216.5608,0.0003093,0.98909311,0.0000,01/26.5825/2022,2000,g 13.0,4.0
# From MPEC 2022-CN4
C/2021 V1 (Rankin),e,71.4540,207.6530,195.1413,615.9166,0.0000645,0.99510598,0.0000,04/30.4608/2022,2000,g 13.0,4.0
# From MPEC 2023-KD6
P/2021 V2 (Fuls),e,12.6943,232.2789,259.8343,9.064325,0.0361161,0.61424758,7.0273,08/04.0/2023,2000,g 10.0,4.0
# From MPEC 2023-OA6
C/2021 X1 (Maury-Attard),h,05/27.2720/2023,140.1085,10.5922,334.5868,1.001274,3.233537,2000,7.0,4.0
# From MPEC 2023-A50
A/2021 X2,h,07/08.0375/2022,137.1614,228.8222,193.2841,1.000746,2.994481,2000,16.0,2.0
# From MPEC 2023-N01
C/2021 Y1 (ATLAS),h,04/30.7137/2023,77.1909,244.7700,245.8209,1.000867,2.032408,2000,7.0,4.0
# From MPEC 2022-YN2
C/2022 A1 (Sarneczky),e,116.5128,285.5218,201.2254,348.7828,0.0001513,0.99640691,0.0000,01/31.1066/2022,2000,g 18.0,4.0
# From MPEC 2023-OA6
C/2022 A2 (PANSTARRS),h,02/18.2784/2023,108.1421,171.5825,88.3734,1.000504,1.735378,2000,9.5,4.0
# From MPEC 2023-M14
C/2022 A3 (Lemmon-ATLAS),e,88.3438,325.4810,234.8474,896.2979,0.0000367,0.99586805,0.0000,09/28.8495/2023,2000,g 10.9,4.0
# From MPEC 2022-K19
P/2022 B1 (Wierzchos),e,10.9898,148.8375,325.4729,5.466362,0.0771181,0.65316643,40.4573,08/04.0/2023,2000,g 16.5,4.0
# From MPEC 2022-YB4
A/2022 B3,e,132.0514,286.1832,150.6901,824.9990,0.0000416,0.99551636,0.0000,01/17.4951/2022,2000,g 16.5,2.0
# From MPEC 2022-GA9
C/2022 B4 (Bok),e,20.0439,340.6412,152.9357,379.7386,0.0001332,0.99636997,0.0000,01/29.9242/2022,2000,g 21.0,4.0
# From MPEC 2023-J29
P/2022 BV9 (Lemmon),e,11.9328,337.3035,16.2559,4.361550,0.1082039,0.23466651,109.7188,08/04.0/2023,2000,g  9.5,4.0
# From MPEC 2023-J29
P/2022 C1 (PANSTARRS),e,4.7622,113.1328,9.3371,7.223480,0.0507673,0.44837121,32.3707,08/04.0/2023,2000,g 12.0,4.0
# From MPEC 2022-OB6
P/2022 C2 (PANSTARRS),e,9.9807,135.2631,89.2723,6.040859,0.0663829,0.44210595,24.0727,08/04.0/2023,2000,g 12.5,4.0
# From MPEC 2022-OB6
P/2022 C3 (PANSTARRS),e,12.8174,139.0477,93.9180,9.633743,0.0329618,0.54595000,13.1532,08/04.0/2023,2000,g 11.5,4.0
# From MPEC 2022-K19
P/2022 D1 (PANSTARRS),e,44.0764,47.9583,88.6764,7.402235,0.0489395,0.54728756,34.5500,08/04.0/2023,2000,g 12.5,4.0
# From MPEC 2022-K19
C/2022 D2 (Kowalski),e,22.6562,312.4456,177.7868,367.2535,0.0001400,0.99576771,0.0000,03/27.5947/2022,2000,g 17.0,4.0
# From MPEC 2023-M14
C/2022 E2 (ATLAS),h,09/14.0029/2024,137.1307,125.3686,41.6931,1.000889,3.666812,2000,9.0,4.0
# From MPEC 2023-OA6
